STARLINK-3110           
1 49420U 21104N   25333.28094393  .00000779  00000+0  67075-4 0  9992
2 49420  53.2189 319.8754 0001633  85.7402 274.3777 15.08833828223465
STARLINK-3112           
1 49421U 21104P   25333.24781028  .00008228  00000+0  53440-3 0  9994
2 49421  53.2175 319.8268 0001344  89.6101 270.5046 15.08843742223462
STARLINK-3161           
1 49422U 21104Q   25333.24145563  .00000154  00000+0  27791-4 0  9994
2 49422  53.2199 320.3665 0001490  96.1131 264.0031 15.08837947223456
STARLINK-3149           
1 49423U 21104R   25333.27729756  .00000364  00000+0  40977-4 0  9994
2 49423  53.2184 320.0849 0001283 122.3874 237.7242 15.08833967223468
STARLINK-3135           
1 49424U 21104S   25333.26989751  .00000399  00000+0  43135-4 0  9994
2 49424  53.2179 319.9236 0001634  92.3903 267.7276 15.08840796223467
STARLINK-3139           
1 49425U 21104T   25333.25613464 -.00000002  00000+0  17964-4 0  9992
2 49425  53.2172 319.9913 0001412  89.7418 270.3736 15.08840661223471
STARLINK-3114           
1 49426U 21104U   25333.26255805 -.00001433  00000+0 -71967-4 0  9998
2 49426  53.2190 319.9525 0001550  75.8751 284.2413 15.08821604223461
STARLINK-3131           
1 49427U 21104V   25333.18621299  .00000883  00000+0  73536-4 0  9994
2 49427  53.2181 320.3050 0001448  97.4498 262.6659 15.08841683223466
STARLINK-3121           
1 49428U 21104W   25333.23309071  .00000364  00000+0  40936-4 0  9994
2 49428  53.2186 319.9991 0001477  95.9058 264.2103 15.08837121223472
STARLINK-3138           
1 49430U 21104Y   25333.20832946  .00000587  00000+0  54993-4 0  9991
2 49430  53.2191 320.4785 0001377  88.5174 271.5976 15.08838662223464
STARLINK-3153           
1 49431U 21104Z   25333.22575954  .00000138  00000+0  26786-4 0  9998
2 49431  53.2182 320.3055 0001434  88.9108 271.2048 15.08843082223468
STARLINK-3158           
1 49432U 21104AA  25333.14665498 -.00000129  00000+0  99728-5 0  9991
2 49432  53.2181 310.4781 0001465  80.1987 279.9171 15.08840735223595
STARLINK-3079           
1 49433U 21104AB  25333.27910121 -.00002060  00000+0 -11133-3 0  9991
2 49433  53.2196 299.8839 0001466 106.0496 254.0658 15.08845097224849
STARLINK-3134           
1 49434U 21104AC  25333.25876662  .00009245  00000+0  59686-3 0  9996
2 49434  53.2178 320.1244 0001698  84.8341 275.2845 15.08924461224551
STARLINK-3117           
1 49435U 21104AD  25333.21750253 -.00000521  00000+0 -14614-4 0  9993
2 49435  53.2193 300.1594 0001263 105.0482 255.0650 15.08848764223746
STARLINK-3049           
1 49436U 21104AE  25333.21654211  .00000932  00000+0  76651-4 0  9994
2 49436  53.2178 300.1612 0001469  81.4402 278.6757 15.08827978223741
STARLINK-3130           
1 49437U 21104AF  25333.20917966 -.00001515  00000+0 -77079-4 0  9998
2 49437  53.2189 300.1964 0001570 100.4644 259.6526 15.08846277223743
STARLINK-3044           
1 49438U 21104AG  25333.19908596  .00000686  00000+0  61162-4 0  9998
2 49438  53.2161 300.1698 0001180  95.5186 264.5941 15.08840569223744
STARLINK-3105           
1 49440U 21104AJ  25333.06934185  .00002825  00000+0  19550-3 0  9990
2 49440  53.2176 300.8207 0001408  87.6984 272.4170 15.08840997223722
STARLINK-3128           
1 49441U 21104AK  25333.18341616  .00001467  00000+0  11025-3 0  9995
2 49441  53.2172 300.3102 0001346  91.2630 268.8516 15.08843371223742
STARLINK-3098           
1 49442U 21104AL  25333.19813836  .00000245  00000+0  33488-4 0  9996
2 49442  53.2192 300.2433 0001475  91.3994 268.7168 15.08838778223745
STARLINK-3136           
1 49443U 21104AM  25333.17973473  .00001444  00000+0  10876-3 0  9996
2 49443  53.2182 300.3269 0001415  89.4662 270.6493 15.08844418223748
STARLINK-3126           
1 49444U 21104AN  25333.26165370 -.00001306  00000+0 -63989-4 0  9999
2 49444  53.2174 299.9688 0001826  98.0574 262.0626 15.08835940223756
STARLINK-3122           
1 49445U 21104AP  25333.24606912 -.00000171  00000+0  73247-5 0  9997
2 49445  53.2208 310.4273 0001545  94.3882 265.7287 15.08834815223600
STARLINK-3099           
1 49446U 21104AQ  25333.19077829  .00006033  00000+0  39693-3 0  9998
2 49446  53.2192 300.2766 0001486  69.3639 290.7512 15.08831191223741
STARLINK-3115           
1 49447U 21104AR  25333.20091440 -.00000421  00000+0 -83677-5 0  9996
2 49447  53.2208 310.2325 0001661  85.1851 274.9331 15.08825451223609
STARLINK-3137           
1 49449U 21104AT  25333.25705418  .00000010  00000+0  18703-4 0  9999
2 49449  53.2203 309.9265 0001820  85.5801 274.5399 15.08838122223610
STARLINK-3127           
1 49450U 21104AU  25333.20827000 -.00000969  00000+0 -42842-4 0  9994
2 49450  53.2173 310.2383 0001435  95.5835 264.5321 15.08824986223868
STARLINK-3125           
1 49451U 21104AV  25333.19353839  .00001569  00000+0  11666-3 0  9991
2 49451  53.2185 310.2650 0001373  85.1801 274.9348 15.08838154223606
STARLINK-3150           
1 49452U 21104AW  25333.24970490  .00001409  00000+0  10659-3 0  9990
2 49452  53.2178 310.0521 0001314  91.2301 268.8842 15.08831298223616
STARLINK-3129           
1 49453U 21104AX  25333.19450717  .00000881  00000+0  73423-4 0  9992
2 49453  53.2193 310.3492 0001482  86.0765 274.0397 15.08839776223608
STARLINK-3160           
1 49454U 21104AY  25333.25609864  .00000113  00000+0  25205-4 0  9992
2 49454  53.2191 309.9854 0001504  91.5971 268.5194 15.08848316223612
STARLINK-3145           
1 49455U 21104AZ  25333.30762119  .00000525  00000+0  51063-4 0  9990
2 49455  53.2197 309.7544 0001506  94.4841 265.6323 15.08836623223624
STARLINK-3124           
1 49456U 21104BA  25333.25338581  .00002454  00000+0  17225-3 0  9991
2 49456  53.2181 310.0454 0001213  75.5079 284.6047 15.08828170223612
STARLINK-3132           
1 49457U 21104BB  25333.23865981 -.00000601  00000+0 -19693-4 0  9995
2 49457  53.2184 310.0754 0001578 102.5613 257.5556 15.08834631223611
STARLINK-3156           
1 49458U 21104BC  25333.24506515 -.00000067  00000+0  13852-4 0  9998
2 49458  53.2185 310.0362 0001352  95.8333 264.2813 15.08833074223612
STARLINK-3141           
1 49459U 21104BD  25333.23402113 -.00000211  00000+0  48149-5 0  9996
2 49459  53.2186 310.0801 0001441  92.8969 267.2188 15.08839771223611
STARLINK-3140           
1 49460U 21104BE  25333.23033834 -.00000152  00000+0  85693-5 0  9997
2 49460  53.2180 310.0971 0001457  87.3714 272.7445 15.08838613223609
STARLINK-3219           
1 49724U 21115A   25333.16688793  .00002498  00000+0  17500-3 0  9998
2 49724  53.2170 240.6031 0001860  90.3694 269.7511 15.08844426220353
STARLINK-3218           
1 49725U 21115B   25333.25520425  .00001502  00000+0  11245-3 0  9991
2 49725  53.2168 240.0950 0001250  93.5811 266.5324 15.08837528220378
STARLINK-3242           
1 49727U 21115D   25333.01138158 -.00000556  00000+0 -16862-4 0  9996
2 49727  53.2173 251.0858 0001493  99.4549 260.6612 15.08835381220197
STARLINK-3240           
1 49728U 21115E   25333.08130531 -.00001212  00000+0 -58066-4 0  9993
2 49728  53.2189 250.7706 0001614  90.8110 269.3067 15.08834947220206
STARLINK-3251           
1 49729U 21115F   25333.07392960  .00000239  00000+0  33111-4 0  9999
2 49729  53.2164 250.6857 0001219  81.7183 278.3948 15.08833802220203
STARLINK-3249           
1 49730U 21115G   25333.24324397  .00004443  00000+0  29703-3 0  9991
2 49730  53.2154 250.2342 0001552  85.1916 274.9254 15.08843291220228
STARLINK-3246           
1 49732U 21115J   25333.18435239  .00000862  00000+0  72263-4 0  9995
2 49732  53.2163 250.4586 0001068  89.5463 270.5652 15.08835938220211
STARLINK-3252           
1 49733U 21115K   25333.16226075 -.00000016  00000+0  17071-4 0  9998
2 49733  53.2178 250.4050 0001341  94.4475 265.6671 15.08841331220216
STARLINK-3238           
1 49734U 21115L   25333.11534361  .00001218  00000+0  94601-4 0  9992
2 49734  53.2162 240.6429 0001478  85.5157 274.6004 15.08841159220353
STARLINK-3113           
1 49735U 21115M   25333.15489005 -.00001007  00000+0 -45184-4 0  9991
2 49735  53.2151 250.3235 0001040  90.4255 269.6857 15.08829925220216
STARLINK-3148           
1 49736U 21115N   25333.17788967  .00000232  00000+0  32718-4 0  9999
2 49736  53.2163 240.2199 0002944  98.2152 261.9174 15.08840892220362
STARLINK-3225           
1 49737U 21115P   25333.18526551 -.00000859  00000+0 -35882-4 0  9992
2 49737  53.2173 240.3010 0001475  76.8436 283.2721 15.08834792220369
STARLINK-3143           
1 49738U 21115Q   25333.01328752  .00007424  00000+0  48388-3 0  9995
2 49738  53.2155 241.2821 0001547  83.1251 276.9917 15.08852113220336
STARLINK-3155           
1 49739U 21115R   25332.97457886  .00012967  00000+0  83143-3 0  9997
2 49739  53.2149 251.2462 0001549  82.4295 277.6873 15.08834552220183
STARLINK-3226           
1 49740U 21115S   25333.06845381  .00001503  00000+0  11252-3 0  9997
2 49740  53.2160 240.7969 0001329 100.2734 259.8408 15.08841378220344
STARLINK-3244           
1 49741U 21115T   25333.06478166  .00010406  00000+0  67066-3 0  9997
2 49741  53.2159 240.8561 0001671  88.3081 271.8103 15.08854124220342
STARLINK-3202           
1 49742U 21115U   25333.01230502  .00000836  00000+0  70603-4 0  9991
2 49742  53.2174 241.0792 0001625  86.1482 273.9696 15.08839173220335
STARLINK-3239           
1 49743U 21115V   25333.12733339  .00000693  00000+0  61642-4 0  9994
2 49743  53.2189 240.4977 0001497  89.8231 270.2933 15.08835012220353
STARLINK-3231           
1 49744U 21115W   25333.14204240  .00001424  00000+0  10755-3 0  9992
2 49744  53.2172 240.3897 0001411  87.1266 272.9888 15.08845243220356
STARLINK-3241           
1 49745U 21115X   25333.13837691  .00000536  00000+0  51787-4 0  9998
2 49745  53.2182 240.4850 0001381  91.2655 268.8496 15.08837032220358
STARLINK-3233           
1 49746U 21115Y   25333.15948754  .00003768  00000+0  25460-3 0  9992
2 49746  53.2160 240.4146 0001481  91.9729 268.1433 15.08857186220359
